NORAD_CAT_ID,OBJECT_NAME,OBJECT_TYPE,EPOCH,MEAN_MOTION,ECCENTRICITY,INCLINATION,RA_OF_ASC_NODE,ARG_OF_PERICENTER,MEAN_ANOMALY,BSTAR,MEAN_MOTION_DOT,MEAN_MOTION_DDOT,TLE_LINE0,TLE_LINE1,TLE_LINE2,SEMIMAJOR_AXIS,PERIOD,APOGEE,PERIGEE,DECAYED
52135.0,STARLINK-3729,PAYLOAD,2024-04-15 20:27:59,15.08843027,0.0001216,53.2162,299.3966,93.7093,266.4039,0.00014977,2.097e-05,0.0,0 STARLINK-3729,1 52135U 22029AZ  24106.85277654  .00002097  00000-0  14977-3 0  9997,2 52135  53.2162 299.3966 0001216  93.7093 266.4039 15.08843027116345,6917.871,95.437,540.577,538.895,0.0
52135.0,STARLINK-3729,PAYLOAD,2024-04-16 12:21:51,15.08843145,0.0001527,53.2161,296.4239,82.1962,277.9204,0.00013633,1.883e-05,0.0,0 STARLINK-3729,1 52135U 22029AZ  24107.51517520  .00001883  00000-0  13633-3 0  9990,2 52135  53.2161 296.4239 0001527  82.1962 277.9204 15.08843145116440,6917.871,95.437,540.792,538.679,0.0
52135.0,STARLINK-3729,PAYLOAD,2024-04-16 20:18:46,15.08850387,0.0001447,53.2161,294.938,75.6359,284.4794,0.00026058,3.863e-05,0.0,0 STARLINK-3729,1 52135U 22029AZ  24107.84637221  .00003863  00000-0  26058-3 0  9992,2 52135  53.2161 294.9380 0001447  75.6359 284.4794 15.08850387116496,6917.849,95.437,540.715,538.713,0.0
52135.0,STARLINK-3729,PAYLOAD,2024-04-17 12:12:38,15.08843012,0.0001176,53.215,291.9643,87.1173,272.9954,0.00014705,2.053e-05,0.0,0 STARLINK-3729,1 52135U 22029AZ  24108.50877395  .00002053  00000-0  14705-3 0  9990,2 52135  53.2150 291.9643 0001176  87.1173 272.9954 15.08843012116592,6917.871,95.437,540.55,538.923,0.0
52135.0,STARLINK-3729,PAYLOAD,2024-04-17 18:34:10,15.0883755,0.0001045,53.2158,290.7689,107.9092,252.2014,-5.2851e-06,-3.72e-06,0.0,0 STARLINK-3729,1 52135U 22029AZ  24108.77373607 -.00000372  00000-0 -52851-5 0  9996,2 52135  53.2158 290.7689 0001045 107.9092 252.2014 15.08837550116636,6917.888,95.438,540.476,539.03,0.0
52135.0,STARLINK-3729,PAYLOAD,2024-04-18 12:03:26,15.08830699,0.0001196,53.2149,287.5024,86.4583,273.6546,6.9396e-05,8.17e-06,0.0,0 STARLINK-3729,1 52135U 22029AZ  24109.50238459  .00000817  00000-0  69396-4 0  9996,2 52135  53.2149 287.5024 0001196  86.4583 273.6546 15.08830699116742,6917.909,95.438,540.601,538.946,0.0
52135.0,STARLINK-3729,PAYLOAD,2024-04-18 18:24:58,15.08841647,0.0001443,53.2168,286.3113,69.1858,290.9288,4.4128e-05,4.14e-06,0.0,0 STARLINK-3729,1 52135U 22029AZ  24109.76734213  .00000414  00000-0  44128-4 0  9992,2 52135  53.2168 286.3113 0001443  69.1858 290.9288 15.08841647116781,6917.875,95.437,540.739,538.742,0.0
52135.0,STARLINK-3729,PAYLOAD,2024-04-19 11:54:13,15.08839693,0.0001506,53.2173,283.0409,90.1459,269.9706,0.00033799,5.095e-05,0.0,0 STARLINK-3729,1 52135U 22029AZ  24110.49598519  .00005095  00000-0  33799-3 0  9992,2 52135  53.2173 283.0409 0001506  90.1459 269.9706 15.08839693116891,6917.881,95.438,540.788,538.704,0.0
52135.0,STARLINK-3729,PAYLOAD,2024-04-19 16:40:22,15.08842253,0.0001489,53.2169,282.1483,92.3081,267.8082,0.00033631,5.069e-05,0.0,0 STARLINK-3729,1 52135U 22029AZ  24110.69470526  .00005069  00000-0  33631-3 0  9997,2 52135  53.2169 282.1483 0001489  92.3081 267.8082 15.08842253116927,6917.874,95.437,540.769,538.708,0.0
52135.0,STARLINK-3729,PAYLOAD,2024-04-20 11:45:00,15.08837081,0.0001438,53.2162,278.5779,91.8202,268.2955,1.451e-06,-2.65e-06,0.0,0 STARLINK-3729,1 52135U 22029AZ  24111.48958682 -.00000265  00000-0  14510-5 0  9990,2 52135  53.2162 278.5779 0001438  91.8202 268.2955 15.08837081117041,6917.889,95.438,540.749,538.76,0.0
52135.0,STARLINK-3729,PAYLOAD,2024-04-20 14:55:47,15.08816113,0.0001629,53.2166,277.985,100.8345,259.283,-0.00029518,-4.98e-05,0.0,0 STARLINK-3729,1 52135U 22029AZ  24111.62207696 -.00004980  00000-0 -29518-3 0  9999,2 52135  53.2166 277.9850 0001629 100.8345 259.2830 15.08816113117066,6917.953,95.439,540.945,538.691,0.0
52135.0,STARLINK-3729,PAYLOAD,2024-04-20 18:06:33,15.08817612,0.0001677,53.217,277.3899,103.5988,256.5191,-0.00026211,-4.455e-05,0.0,0 STARLINK-3729,1 52135U 22029AZ  24111.75455762 -.00004455  00000-0 -26211-3 0  9996,2 52135  53.2170 277.3899 0001677 103.5988 256.5191 15.08817612117081,6917.949,95.439,540.974,538.654,0.0
52135.0,STARLINK-3729,PAYLOAD,2024-04-21 14:46:34,15.08839305,0.0001551,53.2166,273.5276,94.8674,265.2495,0.00014506,2.021e-05,0.0,0 STARLINK-3729,1 52135U 22029AZ  24112.61567307  .00002021  00000-0  14506-3 0  9990,2 52135  53.2166 273.5276 0001551  94.8674 265.2495 15.08839305117210,6917.883,95.438,540.82,538.675,0.0
52135.0,STARLINK-3729,PAYLOAD,2024-04-21 16:21:56,15.08843407,0.0002039,53.2166,273.2275,114.8812,245.2392,0.00017555,2.507e-05,0.0,0 STARLINK-3729,1 52135U 22029AZ  24112.68190949  .00002507  00000-0  17555-3 0  9997,2 52135  53.2166 273.2275 0002039 114.8812 245.2392 15.08843407117228,6917.87,95.437,541.146,538.324,0.0
52135.0,STARLINK-3729,PAYLOAD,2024-04-22 19:23:29,15.0882147,0.0001672,53.216,268.1711,126.8736,233.2409,-0.00052126,-8.57e-05,0.0,0 STARLINK-3729,1 52135U 22029AZ  24113.80797653 -.00008570  00000-0 -52126-3 0  9998,2 52135  53.2160 268.1711 0001672 126.8736 233.2409 15.08821470117390,6917.937,95.439,540.959,538.645,0.0
52135.0,STARLINK-3729,PAYLOAD,2024-04-23 14:28:07,15.08823144,0.0001203,53.2152,264.604,117.3735,242.7379,-0.00045363,-7.497e-05,0.0,0 STARLINK-3729,1 52135U 22029AZ  24114.60286073 -.00007497  00000-0 -45363-3 0  9998,2 52135  53.2152 264.6040 0001203 117.3735 242.7379 15.08823144117516,6917.932,95.439,540.629,538.965,0.0
52135.0,STARLINK-3729,PAYLOAD,2024-04-23 19:14:16,15.08844289,0.0001274,53.2154,263.7086,94.5545,265.5593,2.1982e-05,6.2e-07,0.0,0 STARLINK-3729,1 52135U 22029AZ  24114.80158491  .00000062  00000-0  21982-4 0  9993,2 52135  53.2154 263.7086 0001274  94.5545 265.5593 15.08844289117548,6917.867,95.437,540.614,538.851,0.0
52135.0,STARLINK-3729,PAYLOAD,2024-04-24 14:18:55,15.08828609,0.0001703,53.2173,260.1316,66.8652,293.252,0.00047714,7.311e-05,0.0,0 STARLINK-3729,1 52135U 22029AZ  24115.59647850  .00007311  00000-0  47714-3 0  9996,2 52135  53.2173 260.1316 0001703  66.8652 293.2520 15.08828609117663,6917.915,95.438,540.958,538.602,0.0
52135.0,STARLINK-3729,PAYLOAD,2024-04-24 15:54:18,15.08828295,0.0001757,53.2179,259.8341,65.5133,294.6042,0.00049655,7.621e-05,0.0,0 STARLINK-3729,1 52135U 22029AZ  24115.66271925  .00007621  00000-0  49655-3 0  9990,2 52135  53.2179 259.8341 0001757  65.5133 294.6042 15.08828295117677,6917.916,95.438,540.997,538.566,0.0
52135.0,STARLINK-3729,PAYLOAD,2024-04-25 12:34:19,15.08843812,0.0001293,53.2165,255.9804,96.0384,264.0756,0.00029402,4.395e-05,0.0,0 STARLINK-3729,1 52135U 22029AZ  24116.52383452  .00004395  00000-0  29402-3 0  9998,2 52135  53.2165 255.9804 0001293  96.0384 264.0756 15.08843812117805,6917.869,95.437,540.628,538.839,0.0
52135.0,STARLINK-3729,PAYLOAD,2024-04-25 14:09:42,15.08843461,0.000139,53.2166,255.6787,120.959,239.1539,0.0002608,3.866e-05,0.0,0 STARLINK-3729,1 52135U 22029AZ  24116.59007295  .00003866  00000-0  26080-3 0  9994,2 52135  53.2166 255.6787 0001390 120.9590 239.1539 15.08843461117810,6917.87,95.437,540.696,538.773,0.0
52135.0,STARLINK-3729,PAYLOAD,2024-04-25 15:45:05,15.08844541,0.0001184,53.216,255.3794,98.9717,261.1409,0.000281,4.188e-05,0.0,0 STARLINK-3729,1 52135U 22029AZ  24116.65631328  .00004188  00000-0  28100-3 0  9994,2 52135  53.2160 255.3794 0001184  98.9717 261.1409 15.08844541117827,6917.867,95.437,540.551,538.912,0.0
52135.0,STARLINK-3729,PAYLOAD,2024-04-26 12:25:06,15.08840346,0.0001318,53.2166,251.5187,82.6218,277.4923,8.6361e-05,1.087e-05,0.0,0 STARLINK-3729,1 52135U 22029AZ  24117.51743661  .00001087  00000-0  86361-4 0  9993,2 52135  53.2166 251.5187 0001318  82.6218 277.4923 15.08840346117956,6917.879,95.438,540.656,538.833,0.0
52135.0,STARLINK-3729,PAYLOAD,2024-04-26 14:00:29,15.08840969,0.0001331,53.2168,251.2216,82.593,277.5214,8.4941e-05,1.064e-05,0.0,0 STARLINK-3729,1 52135U 22029AZ  24117.58367658  .00001064  00000-0  84941-4 0  9995,2 52135  53.2168 251.2216 0001331  82.5930 277.5214 15.08840969117969,6917.877,95.437,540.663,538.822,0.0
52135.0,STARLINK-3729,PAYLOAD,2024-04-26 15:35:52,15.08841712,0.0001312,53.2165,250.9244,79.4197,280.6943,8.8714e-05,1.124e-05,0.0,0 STARLINK-3729,1 52135U 22029AZ  24117.64991608  .00001124  00000-0  88714-4 0  9999,2 52135  53.2165 250.9244 0001312  79.4197 280.6943 15.08841712117974,6917.875,95.437,540.648,538.833,0.0
52135.0,STARLINK-3729,PAYLOAD,2024-04-27 12:15:54,15.08833711,0.0001287,53.2164,247.0557,76.3856,283.7279,2.2866e-05,7.6e-07,0.0,0 STARLINK-3729,1 52135U 22029AZ  24118.51104179  .00000076  00000-0  22866-4 0  9996,2 52135  53.2164 247.0557 0001287  76.3856 283.7279 15.08833711118108,6917.9,95.438,540.655,538.874,0.0
52135.0,STARLINK-3729,PAYLOAD,2024-04-27 13:51:17,15.08832431,0.0001345,53.2165,246.758,84.7458,275.3688,-1.9173e-07,-2.91e-06,0.0,0 STARLINK-3729,1 52135U 22029AZ  24118.57728207 -.00000291  00000-0 -19173-6 0  9996,2 52135  53.2165 246.7580 0001345  84.7458 275.3688 15.08832431118117,6917.904,95.438,540.699,538.838,0.0
52135.0,STARLINK-3729,PAYLOAD,2024-04-27 15:26:40,15.08832023,0.0001203,53.2159,246.4606,77.4651,282.6476,-6.4464e-05,-1.313e-05,0.0,0 STARLINK-3729,1 52135U 22029AZ  24118.64352201 -.00001313  00000-0 -64464-4 0  9998,2 52135  53.2159 246.4606 0001203  77.4651 282.6476 15.08832023118127,6917.905,95.438,540.602,538.938,0.0
52135.0,STARLINK-3729,PAYLOAD,2024-04-28 12:06:42,15.08822254,0.0001617,53.217,242.6007,97.7109,262.4067,-2.7742e-05,-7.29e-06,0.0,0 STARLINK-3729,1 52135U 22029AZ  24119.50465651 -.00000729  00000-0 -27742-4 0  9996,2 52135  53.2170 242.6007 0001617  97.7109 262.4067 15.08822254118256,6917.935,95.439,540.918,538.681,0.0
52135.0,STARLINK-3729,PAYLOAD,2024-04-28 15:17:28,15.08831903,0.0001265,53.2163,242.0048,92.0175,268.0962,5.0172e-05,5.11e-06,0.0,0 STARLINK-3729,1 52135U 22029AZ  24119.63713025  .00000511  00000-0  50172-4 0  9991,2 52135  53.2163 242.0048 0001265  92.0175 268.0962 15.08831903118276,6917.905,95.438,540.645,538.895,0.0
